0 FENGYUN 1C DEB
1 38510U 99025ESV 13290.92994037  .00000518  00000-0  32475-3 0   236
2 38510 099.0776 334.9619 0111473 062.8616 298.0800 14.05927572261758
0 FENGYUN 1C DEB
1 38510U 99025ESV 13294.34596907  .00000518  00000-0  32475-3 0   241
2 38510 099.0776 338.3847 0111470 053.3570 307.7785 14.05931406262235
0 FENGYUN 1C DEB
1 38510U 99025ESV 13295.34229028  .00001601  00000-0  95142-3 0   254
2 38510 099.0878 339.3972 0109616 054.5770 306.6983 14.05944029262370
